{
  "norad_id": 55169,
  "name": "ONEWEB-0628",
  "history": [
    {
      "epoch": "2026-05-03T21:10:49.935360Z",
      "apogee_km": 1215.2705282734823,
      "perigee_km": 1212.1776040751238,
      "latitude_deg": -3.8272474379976844e-05,
      "longitude_deg": 179.9713035600839,
      "height_km": 1216.9486731822608,
      "semi_major_axis_km": 7591.861066174303,
      "eccentricity": 0.0002037,
      "inclination_deg": 87.8984,
      "raan_deg": 359.4592,
      "arg_perigee_deg": 102.5904,
      "mean_anomaly_deg": 257.5452,
      "mean_motion_rev_day": 13.12442799
    },
    {
      "epoch": "2026-05-04T15:28:38.870112Z",
      "apogee_km": 1215.2863958817352,
      "perigee_km": 1212.1570317199066,
      "latitude_deg": 5.0360820896328356e-05,
      "longitude_deg": -95.38531872505214,
      "height_km": 1216.9370245344899,
      "semi_major_axis_km": 7591.858713800821,
      "eccentricity": 0.0002061,
      "inclination_deg": 87.8982,
      "raan_deg": 359.3079,
      "arg_perigee_deg": 102.0955,
      "mean_anomaly_deg": 258.0405,
      "mean_motion_rev_day": 13.12443409
    },
    {
      "epoch": "2026-05-05T15:15:48.443904Z",
      "apogee_km": 1215.3081524957088,
      "perigee_km": 1212.1317195536758,
      "latitude_deg": 8.427814046769308e-05,
      "longitude_deg": -93.3487680177842,
      "height_km": 1216.9342174470228,
      "semi_major_axis_km": 7591.856936024692,
      "eccentricity": 0.0002092,
      "inclination_deg": 87.8981,
      "raan_deg": 359.1112,
      "arg_perigee_deg": 101.878,
      "mean_anomaly_deg": 258.2584,
      "mean_motion_rev_day": 13.1244387
    },
    {
      "epoch": "2026-05-06T15:02:57.908832Z",
      "apogee_km": 1215.3259781714996,
      "perigee_km": 1212.1100683836403,
      "latitude_deg": -5.6793982204458754e-05,
      "longitude_deg": -91.31186893275382,
      "height_km": 1216.9204845931902,
      "semi_major_axis_km": 7591.85502327757,
      "eccentricity": 0.0002118,
      "inclination_deg": 87.898,
      "raan_deg": 358.9144,
      "arg_perigee_deg": 101.3015,
      "mean_anomaly_deg": 258.8351,
      "mean_motion_rev_day": 13.12444366
    },
    {
      "epoch": "2026-05-07T14:50:07.247616Z",
      "apogee_km": 1215.349166924313,
      "perigee_km": 1212.080115607584,
      "latitude_deg": -2.502252948963005e-06,
      "longitude_deg": -89.2743354385783,
      "height_km": 1216.9041363252425,
      "semi_major_axis_km": 7591.851641265948,
      "eccentricity": 0.0002153,
      "inclination_deg": 87.8978,
      "raan_deg": 358.7177,
      "arg_perigee_deg": 100.6555,
      "mean_anomaly_deg": 259.4816,
      "mean_motion_rev_day": 13.12445243
    },
    {
      "epoch": "2026-05-08T09:07:55.975008Z",
      "apogee_km": 1215.3754266531405,
      "perigee_km": 1212.054750549586,
      "latitude_deg": 9.174858290289298e-05,
      "longitude_deg": -4.63019088682389,
      "height_km": 1216.9009237983764,
      "semi_major_axis_km": 7591.852088601363,
      "eccentricity": 0.0002187,
      "inclination_deg": 87.898,
      "raan_deg": 358.5663,
      "arg_perigee_deg": 100.3623,
      "mean_anomaly_deg": 259.7753,
      "mean_motion_rev_day": 13.12445127
    },
    {
      "epoch": "2026-05-09T16:14:12.795936Z",
      "apogee_km": 1215.4062684969922,
      "perigee_km": 1212.0248573654635,
      "latitude_deg": -1.7396904051022416e-05,
      "longitude_deg": -112.73510865779164,
      "height_km": 1216.8849197274455,
      "semi_major_axis_km": 7591.852562931228,
      "eccentricity": 0.0002227,
      "inclination_deg": 87.8977,
      "raan_deg": 358.3089,
      "arg_perigee_deg": 99.6097,
      "mean_anomaly_deg": 260.5283,
      "mean_motion_rev_day": 13.12445004
    },
    {
      "epoch": "2026-05-10T16:01:22.310112Z",
      "apogee_km": 1215.4212301043262,
      "perigee_km": 1212.021595906982,
      "latitude_deg": 1.0623112507967862e-05,
      "longitude_deg": -110.69850667644076,
      "height_km": 1216.8773850205146,
      "semi_major_axis_km": 7591.858413005654,
      "eccentricity": 0.0002239,
      "inclination_deg": 87.8975,
      "raan_deg": 358.112,
      "arg_perigee_deg": 99.1018,
      "mean_anomaly_deg": 261.0364,
      "mean_motion_rev_day": 13.12443487
    }
  ]
}